IRIDIUM 159             
1 43578U 18061K   25198.45688053  .00000001  00000+0 -66161-5 0  9993
2 43578  86.3987 196.5589 0002363  92.2383 267.9084 14.34217496365409
IRIDIUM 180             
1 43922U 19002A   25198.73545085  .00000009  00000+0 -39913-5 0  9993
2 43922  86.4002 133.4260 0002216  82.0142 278.1305 14.34217680341054
IRIDIUM 176             
1 43923U 19002B   25198.28211247  .00000742  00000+0  11381-3 0  9994
2 43923  86.6125 133.6056 0002499  70.9049 289.2439 14.72255779349976
IRIDIUM 168             
1 43924U 19002C   25198.38026575  .00000052  00000+0  11633-4 0  9999
2 43924  86.4003 133.6422 0002274  83.9123 276.2331 14.34217803340988
IRIDIUM 173             
1 43925U 19002D   25198.36758902  .00000226  00000+0  73542-4 0  9994
2 43925  86.3999 133.5501 0002318  80.0852 280.0606 14.34217217340960
IRIDIUM 169             
1 43926U 19002E   25198.41075031  .00000266  00000+0  80476-4 0  9994
2 43926  86.4267 165.1171 0002243  49.8596 310.2799 14.38605845342096
IRIDIUM 172             
1 43927U 19002F   25198.36123850 -.00000012  00000+0 -11211-4 0  9994
2 43927  86.4001 133.5596 0002416  84.2481 275.8991 14.34217520340971
IRIDIUM 175             
1 43928U 19002G   25198.14117414  .00000594  00000+0  90228-4 0  9998
2 43928  86.1484  84.4719 0001401  87.7376 272.4001 14.72243487349943
